STARLINK-36874          
1 67981U 26038W   26071.66668981 -.02370203  00000+0 -14101-1 0  9992
2 67981  97.2706  82.1636 0002028  95.5432  89.6211 15.81087057  3675
STARLINK-36879          
1 67982U 26038X   26071.66668981 -.02093163  00000+0 -12406-1 0  9996
2 67982  97.2699  82.1660 0001911  86.6920 104.8454 15.81305951  3672
STARLINK-36867          
1 67983U 26038Y   26071.66668981 -.01076783  00000+0 -62489-2 0  9992
2 67983  97.2686  82.1714 0001231 114.1019  90.5689 15.81198076  3679
STARLINK-36266          
1 67984U 26038Z   26071.66668981 -.01890999  00000+0 -11020-1 0  9990
2 67984  97.2696  82.1692 0001677 115.1795  83.5751 15.81329097  3640
STARLINK-36802          
1 67985U 26038AA  26071.66668981 -.00874034  00000+0 -49650-2 0  9993
2 67985  97.2682  82.1732 0000981 102.1087 107.9802 15.81140266  3678
STARLINK-36535          
1 67986U 26039A   26071.66668981  .00118358  00000+0  55928-3 0  9999
2 67986  42.9995  36.6933 0002388 255.8887 204.8795 15.81925496  3356
STARLINK-36744          
1 67987U 26039B   26071.66668981  .00065286  00000+0  31100-3 0  9997
2 67987  42.9996  36.6820 0002178 236.0424 228.9826 15.81962719  3359
STARLINK-36734          
1 67988U 26039C   26071.66668981 -.01966118  00000+0 -15557-1 0  9991
2 67988  42.9995  36.7519 0001385 264.9923 171.8330 15.73356249  3350
STARLINK-36957          
1 67989U 26039D   26071.66668981  .00043989  00000+0  21076-3 0  9996
2 67989  42.9996  36.6596 0001791 237.6816 235.8873 15.81976041  3355
STARLINK-36951          
1 67990U 26039E   26071.58335648 -.00049258  00000+0 -23264-3 0  9998
2 67990  42.9998  37.1603 0001952 288.3467  74.2915 15.82022395  3344
STARLINK-36941          
1 67991U 26039F   26071.66668981 -.01964892  00000+0 -15782-1 0  9992
2 67991  42.9995  36.7249 0001426 270.0630 176.9358 15.73009271  3359
STARLINK-36950          
1 67992U 26039G   26071.66668981 -.01940296  00000+0 -12469-1 0  9994
2 67992  42.9997  36.6400 0001255 272.1043 208.8515 15.78504036  3355
